ARIANE 5 R/B            
1 28499U 04049H   26045.45759836  .00001031  00000+0  11970-3 0  9998
2 28499  98.2588 213.0514 0085378  66.7954 294.2224 14.85219724142340
CZ-2D R/B               
1 28738U 05024B   26045.60299545  .00030669  00000+0  40830-3 0  9997
2 28738  97.3612  59.9407 0007664 101.8414 258.3702 15.58074423136189
ALOS (DAICHI)           
1 28931U 06002A   26045.42422610  .00001576  00000+0  27265-3 0  9992
2 28931  98.1178   1.5039 0001883  60.1143 300.0249 14.69731906 70069
H-2A R/B                
1 28932U 06002B   26045.37804407  .00008143  00000+0  41419-3 0  9999
2 28932  98.2364 190.4140 0052474 321.6513  38.0991 15.15935142 90904
RESURS-DK 1             
1 29228U 06021A   26045.45702384  .00002495  00000+0  14864-3 0  9997
2 29228  69.9339 297.1162 0004007 196.3596 163.7441 15.12608415 84014
CZ-4B R/B               
1 29507U 06046C   26045.58524358  .00004582  00000+0  23457-3 0  9998
2 29507  97.5646  90.5550 0033032 350.5254   9.5351 15.16651454 56542
CZ-2C R/B               
1 31114U 07010B   26045.33641302  .00000118  00000+0  73325-4 0  9990
2 31114  98.3971 159.7875 0058963   3.3092 356.8464 14.20237909976408
COSMO-SKYMED 1          
1 31598U 07023A   26045.79606985  .00003721  00000+0  33402-3 0  9992
2 31598  97.8854 236.6476 0001153  94.2158 265.9194 14.96348043 11484
COSMOS 2428             
1 31792U 07029A   26045.59707082  .00000277  00000+0  17421-3 0  9998
2 31792  70.9398 251.8177 0007761 303.3202  56.7175 14.12936818960835
SL-16 R/B               
1 31793U 07029B   26045.65870887  .00000153  00000+0  10387-3 0  9997
2 31793  70.9743 220.7952 0002263 282.3065 149.1820 14.14835827962118
KORONAS-FOTON           
1 33504U 09003A   26045.15858094  .00013564  00000+0  30954-3 0  9996
2 33504  82.4317 300.3292 0009095 237.7803 122.2563 15.42702726942118
CZ-2C R/B               
1 37731U 11030B   26045.45033120  .00001761  00000+0  22785-3 0  9992
2 37731  97.8504   3.1876 0054130  66.6109  47.2796 14.81129967786657
H-2A R/B                
1 38341U 12025E   26045.43783516  .00004329  00000+0  39452-3 0  9996
2 38341  98.4681  10.6345 0045449  30.6514 329.7345 14.94957610744746
SHIJIAN-16 (SJ-16)      
1 39358U 13057A   26045.90199472  .00000497  00000+0  51504-4 0  9990
2 39358  74.9702 228.2246 0016589 169.8285 190.3243 14.92252390668103
SL-4 R/B                
1 39679U 14021B   26045.50842798  .00013018  00000+0  29523-3 0  9998
2 39679  51.6068  90.2975 0098952  18.4928 341.9612 15.38403015652705
ALOS-2                  
1 39766U 14029A   26045.85896994  .00000237  00000+0  38608-4 0  9992
2 39766  97.9208 144.7852 0001620 103.7073 256.4319 14.79455308633490
YAOGAN-29               
1 41038U 15069A   26045.85373347  .00000356  00000+0  50493-4 0  9992
2 41038  98.0176  74.2200 0002878  74.3099 285.8431 14.82969177552491
ASTRO-H (HITOMI)        
1 41337U 16012A   26045.62902583  .00003253  00000+0  19039-3 0  9997
2 41337  30.9987 145.3423 0009842 100.7351 259.4395 15.09834383548747
HXMT (HUIYAN)           
1 42758U 17034A   26045.73732479  .00006430  00000+0  32599-3 0  9993
2 42758  43.0140 144.2478 0030592  89.4606 270.9747 15.17161209479056
CZ-2C R/B               
1 43521U 18054D   26045.56694634  .00428756  79187-4  73347-3 0  9998
2 43521  35.1279 101.4799 0011780  83.6812 276.5270 16.01291086425183
SAOCOM 1A               
1 43641U 18076A   26045.80689244  .00000446  00000+0  62601-4 0  9990
2 43641  97.8873 234.3032 0001351  81.6842 278.4524 14.82141675397974
H-2A R/B                
1 43682U 18084L   26045.54864640  .00017459  00000+0  43012-3 0  9996
2 43682  98.8756 258.0087 0026343 102.7831 257.6357 15.40314146402211
SAOCOM 1B               
1 46265U 20059A   26045.83815782  .00000482  00000+0  67108-4 0  9997
2 46265  97.8873 233.4321 0001482  85.4651 274.6731 14.82146500295365
CSS (TIANHE)            
1 48274U 21035A   26045.54273357  .00017551  00000+0  21777-3 0  9994
2 48274  41.4682 348.8930 0004119  92.6831 267.4479 15.59606555273997
COSMOS 2550             
1 48865U 21056A   26045.89030187 -.00000042  00000+0  45523-5 0  9998
2 48865  67.1422 109.8973 0008401 269.4635  90.5557 15.33828936259960
CZ-2C R/B               
1 52794U 22058K   26045.48279318  .00033721  00000+0  52378-3 0  9996
2 52794  50.1885  77.5121 0042125 102.0541 258.5154 15.52570581206520
CZ-2C R/B               
1 54039U 22132E   26045.54695460  .00033868  00000+0  41925-3 0  9998
2 54039  97.2956  48.2014 0019123 167.7441 192.4286 15.59795324186766
GSLV R/B                
1 54149U 22138AN  26045.38671697  .00003361  00000+0  29179-3 0  9996
2 54149  87.3868 174.1592 0019791 232.5385 127.4047 14.96595090180449
XRISM                   
1 57800U 23137A   26045.45922411  .00006765  00000+0  38701-3 0  9996
2 57800  31.0028  73.8801 0008157 167.9956 192.0878 15.11211990134279
ACS3                    
1 59588U 24077B   26045.44775081  .00016642  00000+0  13704-1 0  9992
2 59588  97.2194 351.7846 0046824 146.8657 213.5455 13.88617929 90978
SZ-21 MODULE            
1 66515U 25246C   26045.18294127  .00036199  00000+0  33554-3 0  9993
2 66515  41.4766 347.8589 0002276 294.3248  65.7355 15.66742900 14383
